<kml xmlns="http://www.opengis.net/kml/2.2"><Document>
<Placemark>
<ExtendedData></ExtendedData>
  <Polygon>
<outerBoundaryIs>
  <LinearRing><coordinates>79.22312638818966,16.182203521846887
79.32953553560219,16.244987566887474
79.36066511759674,16.240559855915564
79.41254775425512,16.282619082430628
79.45405386358271,16.31028471038391
79.49671292039159,16.302538728265887
79.51285418512964,16.31581736716015
79.53130134483052,16.31803038608686
79.55551324193863,16.308071603896835
79.57396040163951,16.188526792345556
79.5509015158321,16.143124998167494
79.5647368856072,16.114328244490977
79.5647368856072,16.07223316061824
79.58087815034526,16.0135067171541
79.55781920071865,16.00242431658245
79.56934867553292,15.939242905079581
79.6143136273028,15.94035152263831
79.61661952226564,15.919286741795716
79.63391373448508,15.910416699337276
79.66158447403541,15.917069267889872
79.7030905833629,15.89489318322778
79.69617289847639,15.877150555371074
79.72614953298955,15.856079155024005
79.72153774306378,15.836114745177
79.7584320624656,15.817257657158095
79.7584320624656,15.832787151615861
79.7445966926905,15.859406364648649
79.75382027253988,15.88713097594598
79.77226743224082,15.903763910593725
79.78264395957365,15.921504191222823
79.79763227683026,15.939242905079581
79.85066786097008,15.925939016633407
79.87372681059674,15.917069267889872
79.8806444954833,15.93148241065387
79.90716228755423,15.944785931602766
79.8956328127419,15.971390325453854
79.88756218037184,15.996882885722783
79.8552796508958,16.007965593742767
79.87257386311529,16.046750226254574
79.90255049762845,16.057830163816234
79.90485639259134,16.07223316061824
79.87372681059674,16.09992829898586
79.85066786097008,16.122081628307114
79.8564325983773,16.156414395213503
79.87833860052046,16.164166131180124
79.93137418466227,16.15309212963774
79.98902155872577,16.137587486020067
80.01208050835237,16.10989760334465
80.02591587812759,16.124296825130585
80.04897327208346,16.1132200527113
80.04090263971335,16.088850166078018
80.04782032460201,16.08220331426523
80.06396158934007,16.08552676796596
80.07779695911518,16.04453362381264
80.08010285407806,16.01793896412194
80.09624411881606,16.009073289670965
80.1216089634035,16.015722582421404
80.12737370081067,16.036777214502735
80.14466791303016,16.041209485360923
80.22076244679664,16.02791237713903
80.23113897412742,16.04564165763884
80.28186866330645,16.051181734318334
80.31645708774533,16.04564165763884
80.31299824530112,16.02791237713903
80.32683361507623,16.01793896412194
80.34297487981428,16.024587961530187
80.40408109632409,16.010181520507473
80.4225288158043,15.98801597231116
80.41676407839714,15.971390020971157
80.39139923380759,15.982474142044708
80.3752579690696,15.969173123095771
80.39716397121475,15.893784010203646
80.40984639350853,15.902654786482088
80.45711724024324,15.908198822972253
80.47902324238845,15.887130671336408
80.4294465006908,15.84609689224584
80.43175239565369,15.812820134938676
80.51707050927166,15.851642485495532
80.62314167755125,15.880477112567618
80.6877067365034,15.891566255019526
80.78109548248932,15.871605358949012
80.81568418005372,15.836114602268864
80.81337828509288,15.812820296736817
80.7960840728735,15.812820296736817
80.82260186494233,15.758456491326385
80.83643723471755,15.805054931939281
80.89408460878309,15.917069125039234
80.8917787138202,15.969173284768317
80.87333155411932,16.053398120020873
80.84796738366657,16.148661580761242
80.82029664411414,16.21509776798227
80.78801411463809,16.282618266407184
80.74766095279199,16.335732820577306
80.68621867236351,16.42012370057853
80.63548898318652,16.48315115070544
80.54786543929703,16.538421051738425
80.48214743286343,16.58262594164553
80.42795938408295,16.58925536038859
80.37838264238536,16.587045432996007
80.36339432512875,16.603619269353217
80.30805284602604,16.609143563880266
80.22504062737306,16.6058290062263
80.18122862308269,16.62571549403289
80.12358191178231,16.664377395858736
80.13049959666887,16.68646661675828
80.13511138659459,16.739470327236845
80.12358191178231,16.781421144039044
80.10398180459993,16.818948236242434
80.08092285497332,16.815637320813025
80.06247569527244,16.75713495645995
80.0359579032015,16.721804059860233
79.97715758165657,16.636762284904037
79.93449740908409,16.61908658014194
79.89529719471938,16.634552958218876
79.86070877028044,16.68867545260295
79.8042143436964,16.676526837133366
79.79499076384695,16.69971897840081
79.76386118185025,16.719595715412368
79.7315786523742,16.68536227039975
79.67969601571582,16.679840172452145
79.65202527616344,16.654436468612488
79.6036014819494,16.654436468612488
79.54249526543953,16.626819925023526
79.48715378633892,16.622400908962305
79.46294188923082,16.592569890326487
79.41912988494045,16.575995101681812
79.27155260733326,16.5572086157935
79.23235239297071,16.509681686379665
79.24157597282016,16.468777065017278
79.21966997067489,16.392472422596867
79.2346582879315,16.348224145955797
79.2242793356711,16.236452193892063
79.22312638818966,16.182203521846887</coordinates></LinearRing></outerBoundaryIs></Polygon></Placemark></Document></kml>